{"type": "FeatureCollection", "features": [ {"type": "Feature", "properties": {"norad_id": 66578, "name": "STARLINK-35743", "group": "last-30-days", "lat": 27.55992254084674, "lon": -92.20894212232643, "alt_km": 411.2261758270479, "timestamp": "2025-12-12T14:39:16.771632+00:00", "meta": {"OBJECT_NAME": "STARLINK-35743", "OBJECT_ID": "2025-268X", "EPOCH": "2025-12-12T06:00:00.999648", "MEAN_MOTION": 15.50524791, "ECCENTRICITY": 0.00013229, "INCLINATION": 43, "RA_OF_ASC_NODE": 123.9611, "ARG_OF_PERICENTER": 263.567, "MEAN_ANOMALY": 18.3756, "EPHEMERIS_TYPE": 0, "CLASSIFICATION_TYPE": "U", "NORAD_CAT_ID": 66578, "ELEMENT_SET_NO": 999, "REV_AT_EPOCH": 459, "BSTAR": 0.001169512, "MEAN_MOTION_DOT": 0.00068739, "MEAN_MOTION_DDOT": 0}, "tle": {"line1": "1 66578U 25268X   25346.25001157  .00068739  00000+0  11695-2 0  9992", "line2": "2 66578  43.0000 123.9611 0001322 263.5670  18.3756 15.50524791  4598"}}, "geometry": {"type": "Point", "coordinates": [-92.20894212232643, 27.55992254084674]}}, {"type": "Feature", "properties": {"norad_id": 66579, "name": "STARLINK-35868", "group": "last-30-days", "lat": 26.465098720217316, "lon": -90.44500960348955, "alt_km": 411.477101022705, "timestamp": "2025-12-12T14:39:16.771642+00:00", "meta": {"OBJECT_NAME": "STARLINK-35868", "OBJECT_ID": "2025-268Y", "EPOCH": "2025-12-12T06:00:00.999648", "MEAN_MOTION": 15.50523136, "ECCENTRICITY": 0.00015327, "INCLINATION": 43.0001, "RA_OF_ASC_NODE": 123.9562, "ARG_OF_PERICENTER": 263.6662, "MEAN_ANOMALY": 20.1988, "EPHEMERIS_TYPE": 0, "CLASSIFICATION_TYPE": "U", "NORAD_CAT_ID": 66579, "ELEMENT_SET_NO": 999, "REV_AT_EPOCH": 459, "BSTAR": 0.0011271898, "MEAN_MOTION_DOT": 0.00066214, "MEAN_MOTION_DDOT": 0}, "tle": {"line1": "1 66579U 25268Y   25346.25001157  .00066214  00000+0  11272-2 0  9990", "line2": "2 66579  43.0001 123.9562 0001532 263.6662  20.1988 15.50523136  4590"}}, "geometry": {"type": "Point", "coordinates": [-90.44500960348955, 26.465098720217316]}}, {"type": "Feature", "properties": {"norad_id": 66580, "name": "STARLINK-35872", "group": "last-30-days", "lat": 25.349659547788054, "lon": -88.71530725662763, "alt_km": 411.5630298281849, "timestamp": "2025-12-12T14:39:16.771651+00:00", "meta": {"OBJECT_NAME": "STARLINK-35872", "OBJECT_ID": "2025-268Z", "EPOCH": "2025-12-12T06:00:00.999648", "MEAN_MOTION": 15.50524003, "ECCENTRICITY": 0.00013471, "INCLINATION": 43.0002, "RA_OF_ASC_NODE": 123.9519, "ARG_OF_PERICENTER": 264.3658, "MEAN_ANOMALY": 21.412, "EPHEMERIS_TYPE": 0, "CLASSIFICATION_TYPE": "U", "NORAD_CAT_ID": 66580, "ELEMENT_SET_NO": 999, "REV_AT_EPOCH": 459, "BSTAR": 0.0011346422, "MEAN_MOTION_DOT": 0.0006666, "MEAN_MOTION_DDOT": 0}, "tle": {"line1": "1 66580U 25268Z   25346.25001157  .00066660  00000+0  11346-2 0  9999", "line2": "2 66580  43.0002 123.9519 0001347 264.3658  21.4120 15.50524003  4598"}}, "geometry": {"type": "Point", "coordinates": [-88.71530725662763, 25.349659547788054]}}, {"type": "Feature", "properties": {"norad_id": 66581, "name": "STARLINK-35744", "group": "last-30-days", "lat": 24.212277726903128, "lon": -87.01576803717012, "alt_km": 412.0464418846168, "timestamp": "2025-12-12T14:39:16.771660+00:00", "meta": {"OBJECT_NAME": "STARLINK-35744", "OBJECT_ID": "2025-268AA", "EPOCH": "2025-12-12T06:00:00.999648", "MEAN_MOTION": 15.50523301, "ECCENTRICITY": 0.00015603, "INCLINATION": 43.0001, "RA_OF_ASC_NODE": 123.9467, "ARG_OF_PERICENTER": 286.3497, "MEAN_ANOMALY": 1.3366, "EPHEMERIS_TYPE": 0, "CLASSIFICATION_TYPE": "U", "NORAD_CAT_ID": 66581, "ELEMENT_SET_NO": 999, "REV_AT_EPOCH": 454, "BSTAR": 0.0014566356, "MEAN_MOTION_DOT": 0.00085884, "MEAN_MOTION_DDOT": 0}, "tle": {"line1": "1 66581U 25268AA  25346.25001157  .00085884  00000+0  14566-2 0  9996", "line2": "2 66581  43.0001 123.9467 0001560 286.3497   1.3366 15.50523301  4546"}}, "geometry": {"type": "Point", "coordinates": [-87.01576803717012, 24.212277726903128]}}, {"type": "Feature", "properties": {"norad_id": 66582, "name": "STARLINK-35746", "group": "last-30-days", "lat": 23.06319881547958, "lon": -85.35617370714375, "alt_km": 411.9469651707859, "timestamp": "2025-12-12T14:39:16.771669+00:00", "meta": {"OBJECT_NAME": "STARLINK-35746", "OBJECT_ID": "2025-268AB", "EPOCH": "2025-12-12T06:00:00.999648", "MEAN_MOTION": 15.50529472, "ECCENTRICITY": 0.00013903, "INCLINATION": 43, "RA_OF_ASC_NODE": 123.9418, "ARG_OF_PERICENTER": 266.5229, "MEAN_ANOMALY": 23.0827, "EPHEMERIS_TYPE": 0, "CLASSIFICATION_TYPE": "U", "NORAD_CAT_ID": 66582, "ELEMENT_SET_NO": 999, "REV_AT_EPOCH": 459, "BSTAR": 0.00084758754, "MEAN_MOTION_DOT": 0.0004961, "MEAN_MOTION_DDOT": 0}, "tle": {"line1": "1 66582U 25268AB  25346.25001157  .00049610  00000+0  84759-3 0  9996", "line2": "2 66582  43.0000 123.9418 0001390 266.5229  23.0827 15.50529472  4599"}}, "geometry": {"type": "Point", "coordinates": [-85.35617370714375, 23.06319881547958]}}, {"type": "Feature", "properties": {"norad_id": 66583, "name": "STARLINK-35941", "group": "last-30-days", "lat": 21.88386968121709, "lon": -83.70640721850296, "alt_km": 412.1533829352111, "timestamp": "2025-12-12T14:39:16.771678+00:00", "meta": {"OBJECT_NAME": "STARLINK-35941", "OBJECT_ID": "2025-268AC", "EPOCH": "2025-12-12T06:00:00.999648", "MEAN_MOTION": 15.50553196, "ECCENTRICITY": 0.00014083, "INCLINATION": 43.0002, "RA_OF_ASC_NODE": 123.9371, "ARG_OF_PERICENTER": 269.7135, "MEAN_ANOMALY": 21.8037, "EPHEMERIS_TYPE": 0, "CLASSIFICATION_TYPE": "U", "NORAD_CAT_ID": 66583, "ELEMENT_SET_NO": 999, "REV_AT_EPOCH": 459, "BSTAR": 0.00036018907, "MEAN_MOTION_DOT": 0.00020826, "MEAN_MOTION_DDOT": 0}, "tle": {"line1": "1 66583U 25268AC  25346.25001157  .00020826  00000+0  36019-3 0  9991", "line2": "2 66583  43.0002 123.9371 0001408 269.7135  21.8037 15.50553196  4590"}}, "geometry": {"type": "Point", "coordinates": [-83.70640721850296, 21.88386968121709]}}, {"type": "Feature", "properties": {"norad_id": 66584, "name": "STARLINK-35939", "group": "last-30-days", "lat": 20.70576367183766, "lon": -82.10822410821865, "alt_km": 412.406941818067, "timestamp": "2025-12-12T14:39:16.771687+00:00", "meta": {"OBJECT_NAME": "STARLINK-35939", "OBJECT_ID": "2025-268AD", "EPOCH": "2025-12-12T06:00:00.999648", "MEAN_MOTION": 15.50480412, "ECCENTRICITY": 0.00014866, "INCLINATION": 43.0001, "RA_OF_ASC_NODE": 123.9317, "ARG_OF_PERICENTER": 272.583, "MEAN_ANOMALY": 20.8895, "EPHEMERIS_TYPE": 0, "CLASSIFICATION_TYPE": "U", "NORAD_CAT_ID": 66584, "ELEMENT_SET_NO": 999, "REV_AT_EPOCH": 459, "BSTAR": 0.0018545127, "MEAN_MOTION_DOT": 0.00109604, "MEAN_MOTION_DDOT": 0}, "tle": {"line1": "1 66584U 25268AD  25346.25001157  .00109604  00000+0  18545-2 0  9997", "line2": "2 66584  43.0001 123.9317 0001486 272.5830  20.8895 15.50480412  4591"}}, "geometry": {"type": "Point", "coordinates": [-82.10822410821865, 20.70576367183766]}}, {"type": "Feature", "properties": {"norad_id": 66585, "name": "STARLINK-35963", "group": "last-30-days", "lat": 19.497992787418195, "lon": -80.51381585650867, "alt_km": 412.4391028207019, "timestamp": "2025-12-12T14:39:16.771695+00:00", "meta": {"OBJECT_NAME": "STARLINK-35963", "OBJECT_ID": "2025-268AE", "EPOCH": "2025-12-12T06:00:00.999648", "MEAN_MOTION": 15.50527522, "ECCENTRICITY": 0.00017954, "INCLINATION": 43.0002, "RA_OF_ASC_NODE": 123.9278, "ARG_OF_PERICENTER": 261.1321, "MEAN_ANOMALY": 34.2304, "EPHEMERIS_TYPE": 0, "CLASSIFICATION_TYPE": "U", "NORAD_CAT_ID": 66585, "ELEMENT_SET_NO": 999, "REV_AT_EPOCH": 459, "BSTAR": 0.00108338, "MEAN_MOTION_DOT": 0.00063617, "MEAN_MOTION_DDOT": 0}, "tle": {"line1": "1 66585U 25268AE  25346.25001157  .00063617  00000+0  10834-2 0  9994", "line2": "2 66585  43.0002 123.9278 0001795 261.1321  34.2304 15.50527522  4599"}}, "geometry": {"type": "Point", "coordinates": [-80.51381585650867, 19.497992787418195]}}, {"type": "Feature", "properties": {"norad_id": 66586, "name": "TJS-21", "group": "last-30-days", "lat": 44.02113014680968, "lon": -46.80672288016754, "alt_km": 23838.130989351772, "timestamp": "2025-12-12T14:39:16.771707+00:00", "meta": {"OBJECT_NAME": "TJS-21", "OBJECT_ID": "2025-269A", "EPOCH": "2025-12-10T17:31:22.184832", "MEAN_MOTION": 2.00567425, "ECCENTRICITY": 0.6805766, "INCLINATION": 63.269, "RA_OF_ASC_NODE": 162.5612, "ARG_OF_PERICENTER": 269.7806, "MEAN_ANOMALY": 18.6565, "EPHEMERIS_TYPE": 0, "CLASSIFICATION_TYPE": "U", "NORAD_CAT_ID": 66586, "ELEMENT_SET_NO": 999, "REV_AT_EPOCH": 39, "BSTAR": -0.044965385, "MEAN_MOTION_DOT": 1.083e-05, "MEAN_MOTION_DDOT": 0}, "tle": {"line1": "1 66586U 25269A   25344.73011788  .00001083  00000+0 -44965-1 0  9999", "line2": "2 66586  63.2690 162.5612 6805766 269.7806  18.6565  2.00567425   392"}}, "geometry": {"type": "Point", "coordinates": [-46.80672288016754, 44.02113014680968]}}, {"type": "Feature", "properties": {"norad_id": 66587, "name": "CZ-3B R/B", "group": "last-30-days", "lat": 47.57762758597571, "lon": -129.05049037218106, "alt_km": 31158.878391677554, "timestamp": "2025-12-12T14:39:16.771730+00:00", "meta": {"OBJECT_NAME": "CZ-3B R/B", "OBJECT_ID": "2025-269B", "EPOCH": "2025-12-10T19:33:40.006368", "MEAN_MOTION": 2.03086829, "ECCENTRICITY": 0.7519519, "INCLINATION": 51.3442, "RA_OF_ASC_NODE": 170.0917, "ARG_OF_PERICENTER": 228.3676, "MEAN_ANOMALY": 37.5722, "EPHEMERIS_TYPE": 0, "CLASSIFICATION_TYPE": "U", "NORAD_CAT_ID": 66587, "ELEMENT_SET_NO": 999, "REV_AT_EPOCH": 41, "BSTAR": 0.0011692039, "MEAN_MOTION_DOT": 0.00057137, "MEAN_MOTION_DDOT": 1.092514e-06}, "tle": {"line1": "1 66587U 25269B   25344.81504637  .00057137  10925-5  11692-2 0  9994", "line2": "2 66587  51.3442 170.0917 7519519 228.3676  37.5722  2.03086829   418"}}, "geometry": {"type": "Point", "coordinates": [-129.05049037218106, 47.57762758597571]}}]}